NORAD_CAT_ID,OBJECT_NAME,OBJECT_TYPE,EPOCH,MEAN_MOTION,ECCENTRICITY,INCLINATION,RA_OF_ASC_NODE,ARG_OF_PERICENTER,MEAN_ANOMALY,BSTAR,MEAN_MOTION_DOT,MEAN_MOTION_DDOT,TLE_LINE0,TLE_LINE1,TLE_LINE2,SEMIMAJOR_AXIS,PERIOD,APOGEE,PERIGEE,DECAYED
49416.0,STARLINK-3133,PAYLOAD,2022-04-01 14:00:01,15.08876388,0.0002088,53.2151,205.0285,33.4775,39.0328,-0.0035151,-0.00055855,0.0,0 STARLINK-3133,1 49416U 21104J   22091.58334491 -.00055855  00000-0 -35151-2 0  9990,2 49416  53.2151 205.0285 0002088  33.4775  39.0328 15.08876388 22623,6917.769,95.435,541.0790000000002,538.19,0.0
49416.0,STARLINK-3133,PAYLOAD,2022-04-01 22:00:00,15.08865187,0.0002211,53.215,203.5316,34.1373,49.9962,-0.005117,-0.00080871,0.0,0 STARLINK-3133,1 49416U 21104J   22091.91667824 -.00080871  00000-0 -51170-2 0  9991,2 49416  53.2150 203.5316 0002211  34.1373  49.9962 15.08865187  3583,6917.803000000001,95.436,541.198,538.139,0.0
49416.0,STARLINK-3133,PAYLOAD,2022-04-02 06:00:00,15.08797981,0.0002171,53.2151,202.0339,41.0429,54.6838,0.0041197,0.00065815,0.0,0 STARLINK-3133,1 49416U 21104J   22092.25001157  .00065815  00000-0  41197-2 0  9997,2 49416  53.2151 202.0339 0002171  41.0429  54.6838 15.08797981 22725,6918.009,95.44,541.376,538.372,0.0
49416.0,STARLINK-3133,PAYLOAD,2022-04-02 22:00:01,15.08858116,0.0002169,53.2152,199.0425,34.0739,84.8818,-0.0060056999999999,-0.00094666,0.0,0 STARLINK-3133,1 49416U 21104J   22092.91668981 -.00094666  00000-0 -60057-2 0  9998,2 49416  53.2152 199.0425 0002169  34.0739  84.8818 15.08858116 22822,6917.825,95.436,541.19,538.19,0.0
49416.0,STARLINK-3133,PAYLOAD,2022-04-03 14:00:01,15.08817753,0.000219,53.2155,196.0505,31.5766,110.4415,-0.0021833,-0.00034848,0.0,0 STARLINK-3133,1 49416U 21104J   22093.58334491 -.00034848  00000-0 -21833-2 0  9993,2 49416  53.2155 196.0505 0002190  31.5766 110.4415 15.08817753 22929,6917.948,95.439,541.328,538.298,0.0
49416.0,STARLINK-3133,PAYLOAD,2022-04-03 22:00:00,15.08814798,0.0002128,53.2154,194.5536,29.5391,124.032,-0.00077768,-0.00012635,0.0,0 STARLINK-3133,1 49416U 21104J   22093.91667824 -.00012635  00000-0 -77768-3 0  9998,2 49416  53.2154 194.5536 0002128  29.5391 124.0320 15.08814798  3591,6917.956999999999,95.439,541.295,538.35,0.0
49416.0,STARLINK-3133,PAYLOAD,2022-04-04 06:00:02,15.088085500000002,0.000199,53.2157,193.0561,33.9681,131.224,0.0026755,0.00042513,0.0,0 STARLINK-3133,1 49416U 21104J   22094.25002315  .00042513  00000-0  26755-2 0  9999,2 49416  53.2157 193.0561 0001990  33.9681 131.2240 15.08808550 23023,6917.977,95.44,541.2180000000002,538.465,0.0
49416.0,STARLINK-3133,PAYLOAD,2022-04-04 14:00:01,15.08828176,0.000222,53.2156,191.5616,30.6679,146.03799999999995,0.0012377,0.00019459,0.0,0 STARLINK-3133,1 49416U 21104J   22094.58334491  .00019459  00000-0  12377-2 0  9996,2 49416  53.2156 191.5616 0002220  30.6679 146.0380 15.08828176  3601,6917.917,95.438,541.317,538.246,0.0
49416.0,STARLINK-3133,PAYLOAD,2022-04-04 22:00:00,15.08869967,0.0002167,53.2153,190.0644,30.7054,157.5927,-0.00062261,-0.00010192,0.0,0 STARLINK-3133,1 49416U 21104J   22094.91667824 -.00010192  00000-0 -62261-3 0  9997,2 49416  53.2153 190.0644 0002167  30.7054 157.5927 15.08869967  3608,6917.7890000000025,95.436,541.153,538.155,0.0
49416.0,STARLINK-3133,PAYLOAD,2022-04-05 06:00:00,15.08865726,0.0002017,53.2156,188.5672,36.0342,163.8841,-0.00077203,-0.00012563,0.0,0 STARLINK-3133,1 49416U 21104J   22095.25001157 -.00012563  00000-0 -77203-3 0  9992,2 49416  53.2156 188.5672 0002017  36.0342 163.8841 15.08865726 23175,6917.802,95.436,541.062,538.271,0.0
49416.0,STARLINK-3133,PAYLOAD,2022-04-05 14:00:01,15.08855646,0.0002218,53.2153,187.0724,31.3821,180.2242,-0.0030085,-0.00047873,0.0,0 STARLINK-3133,1 49416U 21104J   22095.58335648 -.00047873  00000-0 -30085-2 0  9991,2 49416  53.2153 187.0724 0002218  31.3821 180.2242 15.08855646  3566,6917.833000000001,95.437,541.232,538.163,0.0
49416.0,STARLINK-3133,PAYLOAD,2022-04-05 22:00:00,15.0883889,0.0002092,53.215,185.575,29.971,193.1641,-0.0044231,-0.00069998,0.0,0 STARLINK-3133,1 49416U 21104J   22095.91667824 -.00069998  00000-0 -44231-2 0  9992,2 49416  53.2150 185.5750 0002092  29.9710 193.1641 15.08838890 23273,6917.884,95.438,541.196,538.302,0.0
49416.0,STARLINK-3133,PAYLOAD,2022-04-06 06:00:02,15.08792555,0.0001995,53.2151,184.0781,34.4976,200.2626,0.0026738,0.00042467,0.0,0 STARLINK-3133,1 49416U 21104J   22096.25002315  .00042467  00000-0  26738-2 0  9990,2 49416  53.2151 184.0781 0001995  34.4976 200.2626 15.08792555 23324,6918.025,95.441,541.271,538.51,0.0
49416.0,STARLINK-3133,PAYLOAD,2022-04-06 14:00:01,15.08813398,0.0002215,53.2149,182.5836,30.2388,216.0134,0.003215,0.00051214,0.0,0 STARLINK-3133,1 49416U 21104J   22096.58334491  .00051214  00000-0  32150-2 0  9994,2 49416  53.2149 182.5836 0002215  30.2388 216.0134 15.08813398  3609,6917.962,95.439,541.359,538.294,0.0
49416.0,STARLINK-3133,PAYLOAD,2022-04-06 22:00:00,15.08870511,0.0002096,53.2145,181.0859,31.1544,226.6808,-0.0042765,-0.00067768,0.0,0 STARLINK-3133,1 49416U 21104J   22096.91667824 -.00067768  00000-0 -42765-2 0  9996,2 49416  53.2145 181.0859 0002096  31.1544 226.6808 15.08870511  3565,6917.7869999999975,95.436,541.102,538.202,0.0
49416.0,STARLINK-3133,PAYLOAD,2022-04-07 06:00:00,15.08835515,0.0002034,53.2146,179.5891,36.5956,232.841,0.0011672,0.00018335,0.0,0 STARLINK-3133,1 49416U 21104J   22097.25001157  .00018335  00000-0  11672-2 0  9992,2 49416  53.2146 179.5891 0002034  36.5956 232.8410 15.08835515 23477,6917.894,95.438,541.1659999999998,538.352,0.0
49416.0,STARLINK-3133,PAYLOAD,2022-04-07 14:00:01,15.08842194,0.0002262,53.2144,178.0944,32.0694,248.9664,-0.00056968,-9.344e-05,0.0,0 STARLINK-3133,1 49416U 21104J   22097.58334491 -.00009344  00000-0 -56968-3 0  9998,2 49416  53.2144 178.0944 0002262  32.0694 248.9664 15.08842194  3615,6917.874,95.437,541.304,538.174,0.0
49416.0,STARLINK-3133,PAYLOAD,2022-04-07 22:00:00,15.08847801,0.0002131,53.214,176.5967,30.7118,261.9309,-0.0011138,-0.00017975,0.0,0 STARLINK-3133,1 49416U 21104J   22097.91667824 -.00017975  00000-0 -11138-2 0  9992,2 49416  53.2140 176.5967 0002131  30.7118 261.9309 15.08847801  3600,6917.857,95.437,541.196,538.247,0.0
49416.0,STARLINK-3133,PAYLOAD,2022-04-08 06:00:00,15.08855953,0.000205,53.2141,175.0998,34.4002,269.8403,0.0013074,0.0002059,0.0,0 STARLINK-3133,1 49416U 21104J   22098.25001157  .00020590  00000-0  13074-2 0  9997,2 49416  53.2141 175.0998 0002050  34.4002 269.8403 15.08855953 23625,6917.831999999999,95.437,541.115,538.278,0.0
49416.0,STARLINK-3133,PAYLOAD,2022-04-08 14:00:03,15.0886091,0.0002283,53.2142,173.6051,30.4728,285.514,-0.00056187,-9.225e-05,0.0,0 STARLINK-3133,1 49416U 21104J   22098.58336806 -.00009225  00000-0 -56187-3 0  9992,2 49416  53.2142 173.6051 0002283  30.4728 285.5140 15.08860910  3595,6917.816,95.436,541.261,538.102,0.0
49416.0,STARLINK-3133,PAYLOAD,2022-04-08 22:00:00,15.08854926,0.0002186,53.2139,172.1073,31.1267,296.3533,-0.0030924,-0.0004919,0.0,0 STARLINK-3133,1 49416U 21104J   22098.91667824 -.00049190  00000-0 -30924-2 0  9991,2 49416  53.2139 172.1073 0002186  31.1267 296.3533 15.08854926 23720,6917.835,95.437,541.212,538.188,0.0
49416.0,STARLINK-3133,PAYLOAD,2022-04-09 14:00:01,15.08792643,0.0002357,53.2143,169.1159,30.6289,320.0172,0.0019456,0.00030772,0.0,0 STARLINK-3133,1 49416U 21104J   22099.58334491  .00030772  00000-0  19456-2 0  9997,2 49416  53.2143 169.1159 0002357  30.6289 320.0172 15.08792643 23826,6918.025,95.441,541.521,538.26,0.0
49416.0,STARLINK-3133,PAYLOAD,2022-04-09 22:00:00,15.08825463,0.000224,53.2143,167.6179,30.873,331.3365,5.7087e-05,6.2e-06,0.0,0 STARLINK-3133,1 49416U 21104J   22099.91667824  .00000620  00000-0  57087-4 0  9996,2 49416  53.2143 167.6179 0002240  30.8730 331.3365 15.08825463  3616,6917.925,95.438,541.339,538.24,0.0
49416.0,STARLINK-3133,PAYLOAD,2022-04-10 14:00:01,15.08836013,0.0002432,53.2148,164.6266,29.7104,355.6758,0.00041234,6.28e-05,0.0,0 STARLINK-3133,1 49416U 21104J   22100.58334491  .00006280  00000-0  41234-3 0  9997,2 49416  53.2148 164.6266 0002432  29.7104 355.6758 15.08836013  3618,6917.893,95.438,541.44,538.075,0.0
49416.0,STARLINK-3133,PAYLOAD,2022-04-10 22:00:00,15.08838278,0.0002265,53.2149,163.1285,29.7673,7.2343,0.00080664,0.00012572,0.0,0 STARLINK-3133,1 49416U 21104J   22100.91667824  .00012572  00000-0  80664-3 0  9994,2 49416  53.2149 163.1285 0002265  29.7673   7.2343 15.08838278 24033,6917.886,95.438,541.318,538.184,0.0
49416.0,STARLINK-3133,PAYLOAD,2022-04-11 14:00:01,15.08850276,0.0002428,53.2153,160.1374,26.7023,33.4938,-0.0014126,-0.00022707,0.0,0 STARLINK-3133,1 49416U 21104J   22101.58334491 -.00022707  00000-0 -14126-2 0  9991,2 49416  53.2153 160.1374 0002428  26.7023  33.4938 15.08850276  3604,6917.849,95.437,541.394,538.034,0.0
49416.0,STARLINK-3133,PAYLOAD,2022-04-11 22:00:00,15.08808046,0.0002167,53.2155,158.6393,24.9846,46.8167,-0.0016105,-0.00025806,0.0,0 STARLINK-3133,1 49416U 21104J   22101.91667824 -.00025806  00000-0 -16105-2 0  9999,2 49416  53.2155 158.6393 0002167  24.9846  46.8167 15.08808046 24188,6917.978,95.44,541.342,538.344,0.0
49416.0,STARLINK-3133,PAYLOAD,2022-04-12 14:00:01,15.08779351,0.0002398,53.2156,155.6484,23.3486,71.5494,0.0032566,0.00051837,0.0,0 STARLINK-3133,1 49416U 21104J   22102.58334491  .00051837  00000-0  32566-2 0  9994,2 49416  53.2156 155.6484 0002398  23.3486  71.5494 15.08779351 24281,6918.066,95.441,541.59,538.2719999999998,0.0
49416.0,STARLINK-3133,PAYLOAD,2022-04-12 22:00:00,15.08834252,0.0002254,53.2163,154.1492,27.5678,78.899,0.001628,0.00025713,0.0,0 STARLINK-3133,1 49416U 21104J   22102.91667824  .00025713  00000-0  16280-2 0  9999,2 49416  53.2163 154.1492 0002254  27.5678  78.8990 15.08834252  3574,6917.898,95.438,541.322,538.2040000000002,0.0
